{
  "norad_id": 55041,
  "name": "SKYKRAFT-1",
  "history": [
    {
      "epoch": "2026-04-11T19:45:51.053184Z",
      "apogee_km": 386.592440568882,
      "perigee_km": 382.57268006222967,
      "latitude_deg": -5.597463509726614e-05,
      "longitude_deg": 40.156920929500906,
      "height_km": 386.2988321957821,
      "semi_major_axis_km": 6762.719560315555,
      "eccentricity": 0.0002972,
      "inclination_deg": 97.3222,
      "raan_deg": 176.6571,
      "arg_perigee_deg": 315.5357,
      "mean_anomaly_deg": 44.5661,
      "mean_motion_rev_day": 15.6106395
    },
    {
      "epoch": "2026-04-13T05:36:31.766400Z",
      "apogee_km": 386.3340751732949,
      "perigee_km": 382.3704449681836,
      "latitude_deg": 6.6826460225333775e-09,
      "longitude_deg": -107.44587535086448,
      "height_km": 386.29532548645193,
      "semi_major_axis_km": 6762.489260070739,
      "eccentricity": 0.00029306,
      "inclination_deg": 97.3223,
      "raan_deg": 178.1139,
      "arg_perigee_deg": 307.5589,
      "mean_anomaly_deg": 52.5402,
      "mean_motion_rev_day": 15.61143695
    },
    {
      "epoch": "2026-04-14T20:03:59.892768Z",
      "apogee_km": 386.06744949949825,
      "perigee_km": 382.1534606724945,
      "latitude_deg": 5.731879523545721e-05,
      "longitude_deg": 35.76271958520967,
      "height_km": 386.3555635721288,
      "semi_major_axis_km": 6762.247455085996,
      "eccentricity": 0.0002894,
      "inclination_deg": 97.3226,
      "raan_deg": 179.7691,
      "arg_perigee_deg": 297.5935,
      "mean_anomaly_deg": 62.5029,
      "mean_motion_rev_day": 15.61227431
    },
    {
      "epoch": "2026-04-15T20:40:43.058208Z",
      "apogee_km": 385.9380169469887,
      "perigee_km": 382.00247053113253,
      "latitude_deg": -3.220365094951258e-05,
      "longitude_deg": 26.631498467747832,
      "height_km": 386.36898955863364,
      "semi_major_axis_km": 6762.10724373906,
      "eccentricity": 0.000291,
      "inclination_deg": 97.3224,
      "raan_deg": 180.8285,
      "arg_perigee_deg": 292.5017,
      "mean_anomaly_deg": 67.5932,
      "mean_motion_rev_day": 15.61275989
    },
    {
      "epoch": "2026-04-16T19:45:05.905728Z",
      "apogee_km": 385.7796685850517,
      "perigee_km": 381.87801429454066,
      "latitude_deg": -1.551531735639633e-05,
      "longitude_deg": 40.5821251867681,
      "height_km": 386.4335102734034,
      "semi_major_axis_km": 6761.965841439796,
      "eccentricity": 0.0002885,
      "inclination_deg": 97.3222,
      "raan_deg": 181.8219,
      "arg_perigee_deg": 286.2951,
      "mean_anomaly_deg": 73.7989,
      "mean_motion_rev_day": 15.61324962
    },
    {
      "epoch": "2026-04-17T21:54:00.768960Z",
      "apogee_km": 385.622122313659,
      "perigee_km": 381.71812535264326,
      "latitude_deg": 8.403276449263414e-05,
      "longitude_deg": 8.40553331884466,
      "height_km": 386.4706737911408,
      "semi_major_axis_km": 6761.807123833151,
      "eccentricity": 0.00028868,
      "inclination_deg": 97.3218,
      "raan_deg": 182.9478,
      "arg_perigee_deg": 280.3796,
      "mean_anomaly_deg": 79.7137,
      "mean_motion_rev_day": 15.61379935
    },
    {
      "epoch": "2026-04-18T19:26:00.667680Z",
      "apogee_km": 385.4690845750274,
      "perigee_km": 381.49460501805606,
      "latitude_deg": 2.44024267885042e-05,
      "longitude_deg": 45.44842161167592,
      "height_km": 386.4221778496958,
      "semi_major_axis_km": 6761.618844796541,
      "eccentricity": 0.0002939,
      "inclination_deg": 97.3215,
      "raan_deg": 183.8746,
      "arg_perigee_deg": 276.1278,
      "mean_anomaly_deg": 83.9645,
      "mean_motion_rev_day": 15.61445151
    },
    {
      "epoch": "2026-04-19T20:02:30.469632Z",
      "apogee_km": 385.2747691591994,
      "perigee_km": 381.2138835345959,
      "latitude_deg": -5.904591982402211e-05,
      "longitude_deg": 36.37333034189606,
      "height_km": 386.3904926001192,
      "semi_major_axis_km": 6761.381326346897,
      "eccentricity": 0.0003003,
      "inclination_deg": 97.3212,
      "raan_deg": 184.9343,
      "arg_perigee_deg": 270.1851,
      "mean_anomaly_deg": 89.9062,
      "mean_motion_rev_day": 15.61527429
    },
    {
      "epoch": "2026-04-20T14:29:50.163648Z",
      "apogee_km": 385.1709810914872,
      "perigee_km": 381.03918605421677,
      "latitude_deg": -3.478722065338812e-05,
      "longitude_deg": 119.57822805543927,
      "height_km": 386.3900371359465,
      "semi_major_axis_km": 6761.242083572852,
      "eccentricity": 0.00030555,
      "inclination_deg": 97.3208,
      "raan_deg": 185.7292,
      "arg_perigee_deg": 266.3346,
      "mean_anomaly_deg": 93.7562,
      "mean_motion_rev_day": 15.61575667
    },
    {
      "epoch": "2026-04-21T19:43:01.279776Z",
      "apogee_km": 384.90880413094965,
      "perigee_km": 380.73323645761593,
      "latitude_deg": 6.535392127994822e-07,
      "longitude_deg": 41.340390625182515,
      "height_km": 386.35613080990294,
      "semi_major_axis_km": 6760.9580202942825,
      "eccentricity": 0.0003088,
      "inclination_deg": 97.3205,
      "raan_deg": 186.9877,
      "arg_perigee_deg": 259.4559,
      "mean_anomaly_deg": 100.6351,
      "mean_motion_rev_day": 15.61674083
    },
    {
      "epoch": "2026-04-22T20:19:18.465600Z",
      "apogee_km": 384.7590020095613,
      "perigee_km": 380.4916088423761,
      "latitude_deg": -5.7372732809508454e-05,
      "longitude_deg": 32.31830575735421,
      "height_km": 386.3511754203009,
      "semi_major_axis_km": 6760.762305425968,
      "eccentricity": 0.0003156,
      "inclination_deg": 97.3204,
      "raan_deg": 188.0477,
      "arg_perigee_deg": 254.4316,
      "mean_anomaly_deg": 105.6593,
      "mean_motion_rev_day": 15.61741896
    },
    {
      "epoch": "2026-04-23T14:46:28.873344Z",
      "apogee_km": 384.63910921915885,
      "perigee_km": 380.3008277274894,
      "latitude_deg": 2.085739748701338e-05,
      "longitude_deg": 115.56199539110646,
      "height_km": 386.33644162577485,
      "semi_major_axis_km": 6760.606968473324,
      "eccentricity": 0.00032085,
      "inclination_deg": 97.3205,
      "raan_deg": 188.8426,
      "arg_perigee_deg": 250.805,
      "mean_anomaly_deg": 109.2861,
      "mean_motion_rev_day": 15.61795722
    },
    {
      "epoch": "2026-04-24T19:59:25.306656Z",
      "apogee_km": 384.4595737527652,
      "perigee_km": 379.9490740214678,
      "latitude_deg": -2.906143562819118e-05,
      "longitude_deg": 37.385616358691976,
      "height_km": 386.2934460443254,
      "semi_major_axis_km": 6760.341323887116,
      "eccentricity": 0.0003336,
      "inclination_deg": 97.3207,
      "raan_deg": 190.1012,
      "arg_perigee_deg": 245.4885,
      "mean_anomaly_deg": 114.6025,
      "mean_motion_rev_day": 15.61887778
    },
    {
      "epoch": "2026-04-25T20:35:29.669856Z",
      "apogee_km": 384.2319208470353,
      "perigee_km": 379.6364244638653,
      "latitude_deg": -1.5691626608485344e-05,
      "longitude_deg": 28.417098574436636,
      "height_km": 386.1868399371293,
      "semi_major_axis_km": 6760.07117265545,
      "eccentricity": 0.0003399,
      "inclination_deg": 97.3207,
      "raan_deg": 191.1612,
      "arg_perigee_deg": 241.4235,
      "mean_anomaly_deg": 118.6681,
      "mean_motion_rev_day": 15.61981405
    },
    {
      "epoch": "2026-04-26T22:43:43.095648Z",
      "apogee_km": 383.97889615218446,
      "perigee_km": 379.2462602774849,
      "latitude_deg": 6.739849501730886e-05,
      "longitude_deg": -3.5860633470120375,
      "height_km": 386.06802328642794,
      "semi_major_axis_km": 6759.749578214834,
      "eccentricity": 0.00035006,
      "inclination_deg": 97.321,
      "raan_deg": 192.2874,
      "arg_perigee_deg": 236.625,
      "mean_anomaly_deg": 123.4674,
      "mean_motion_rev_day": 15.62092873
    },
    {
      "epoch": "2026-04-27T20:15:06.776352Z",
      "apogee_km": 383.7812432710725,
      "perigee_km": 378.9360367962954,
      "latitude_deg": 1.0192218565589318e-05,
      "longitude_deg": 33.60874683607406,
      "height_km": 385.9664673944227,
      "semi_major_axis_km": 6759.495640033683,
      "eccentricity": 0.0003584,
      "inclination_deg": 97.321,
      "raan_deg": 193.2148,
      "arg_perigee_deg": 233.1161,
      "mean_anomaly_deg": 126.9769,
      "mean_motion_rev_day": 15.621809
    },
    {
      "epoch": "2026-04-28T20:50:54.878208Z",
      "apogee_km": 383.591907267627,
      "perigee_km": 378.6279163356012,
      "latitude_deg": 9.086949034262179e-05,
      "longitude_deg": 24.708362504905807,
      "height_km": 385.87275694734666,
      "semi_major_axis_km": 6759.246911801614,
      "eccentricity": 0.0003672,
      "inclination_deg": 97.3211,
      "raan_deg": 194.275,
      "arg_perigee_deg": 229.5891,
      "mean_anomaly_deg": 130.5048,
      "mean_motion_rev_day": 15.62267129
    },
    {
      "epoch": "2026-04-29T19:54:24.192288Z",
      "apogee_km": 383.4244848820317,
      "perigee_km": 378.3173784888495,
      "latitude_deg": 2.0486091840875854e-05,
      "longitude_deg": 38.88336552559269,
      "height_km": 385.808722851567,
      "semi_major_axis_km": 6759.00793168544,
      "eccentricity": 0.0003778,
      "inclination_deg": 97.3211,
      "raan_deg": 195.2691,
      "arg_perigee_deg": 225.6862,
      "mean_anomaly_deg": 134.4087,
      "mean_motion_rev_day": 15.62349986
    },
    {
      "epoch": "2026-04-30T12:48:54.836064Z",
      "apogee_km": 383.29140488547455,
      "perigee_km": 378.0879194148183,
      "latitude_deg": 4.481935856630059e-05,
      "longitude_deg": 145.29017189067466,
      "height_km": 385.7450674828107,
      "semi_major_axis_km": 6758.826662150146,
      "eccentricity": 0.00038494,
      "inclination_deg": 97.3209,
      "raan_deg": 195.998,
      "arg_perigee_deg": 223.0429,
      "mean_anomaly_deg": 137.0529,
      "mean_motion_rev_day": 15.62412839
    }
  ]
}